{
  "type": "FeatureCollection",
  "name": "alerts",
  "crs": { "type": "name", "properties": { "name": "urn:ogc:def:crs:OGC:1.3:CRS84" } },
  "features": [
    { "type": "Feature", "properties": { "h3_cell": "89268352873ffff", "month": "2024-08", "magnitude": 0.25, "alert_type": "vegetation_loss" },
      "geometry": { "type": "Polygon", "coordinates": [[[-104.900, 39.762], [-104.890, 39.762], [-104.890, 39.770], [-104.900, 39.770], [-104.900, 39.762]]] } },
    { "type": "Feature", "properties": { "h3_cell": "8926835295bffff", "month": "2024-08", "magnitude": 0.31, "alert_type": "vegetation_loss" },
      "geometry": { "type": "Polygon", "coordinates": [[[-104.820, 39.640], [-104.810, 39.640], [-104.810, 39.648], [-104.820, 39.648], [-104.820, 39.640]]] } }
  ]
}
